OBJECT_NAME,OBJECT_ID,EPOCH,MEAN_MOTION,ECCENTRICITY,INCLINATION,RA_OF_ASC_NODE,ARG_OF_PERICENTER,MEAN_ANOMALY,EPHEMERIS_TYPE,CLASSIFICATION_TYPE,NORAD_CAT_ID,ELEMENT_SET_NO,REV_AT_EPOCH,BSTAR,MEAN_MOTION_DOT,MEAN_MOTION_DDOT
STARLINK-32664,2024-229N,2026-06-30T21:40:27.699168,15.65620041,.0028804,42.9892,331.4930,321.7464,38.1358,0,U,62204,999,8810,.14673E-2,.15781E-2,0
STARLINK-32660,2024-229P,2026-07-01T03:01:06.347424,15.27594321,.0000661,42.9974,335.8977,331.0839,28.9976,0,U,62205,999,8807,.13343E-2,.36655E-3,0
STARLINK-32448,2024-229Q,2026-07-01T04:34:17.732928,15.27622653,.0002359,43.0032,349.3971,292.2624,67.7978,0,U,62206,999,8792,.11504E-2,.31572E-3,0
STARLINK-32430,2024-229R,2026-06-30T12:12:57.885984,15.27590761,.00010115,43.0000,350.2862,261.6234,98.4503,0,U,62207,999,8785,.10019214E-2,.2742E-3,0
STARLINK-32675,2024-229S,2026-06-30T11:50:03.842592,15.27591409,.00048699,43.0065,353.6271,284.0358,75.9952,0,U,62208,999,8781,.70663303E-3,.19245E-3,0
STARLINK-32671,2024-229T,2026-07-01T04:23:25.603008,15.27606868,.0002069,43.0018,350.1952,277.0092,83.0524,0,U,62209,999,8791,.11497E-2,.31538E-3,0
STARLINK-32670,2024-229U,2026-06-30T13:13:07.285728,15.27584472,.00012261,43.0000,353.1916,235.6964,124.3771,0,U,62210,999,8782,.58811481E-3,.15959E-3,0
STARLINK-32642,2024-229V,2026-06-30T13:03:51.692256,15.27598594,.00015684,43.0020,353.1452,264.4849,95.5824,0,U,62211,999,8782,.96532189E-3,.26412E-3,0
STARLINK-32668,2024-229W,2026-07-01T04:00:04.319424,15.27608915,.0001967,43.0047,346.6228,272.5857,87.4769,0,U,62212,999,8795,.8221E-3,.22449E-3,0
STARLINK-32669,2024-229X,2026-07-01T04:08:39.652224,15.27601779,.0001306,43.0028,350.1177,267.9306,92.1396,0,U,62213,999,8791,.13221E-2,.36323E-3,0
STARLINK-32666,2024-229Y,2026-07-01T04:17:52.370304,15.27615446,.0002166,43.0055,350.1657,276.5304,83.5301,0,U,62214,999,8791,.99382E-3,.27217E-3,0
STARLINK-32662,2024-229Z,2026-07-01T03:57:31.320576,15.27603485,.0001828,43.0027,350.0598,265.8606,94.2037,0,U,62215,999,8791,.89758E-3,.24537E-3,0
COSMOS 2580,2024-230A,2026-07-01T04:46:58.446048,13.96673682,.0006092,67.1488,16.7896,262.6997,97.3395,0,U,62216,999,8009,.12836E-4,-.57E-6,0
STARLINK-11394 [DTC],2024-231A,2026-06-30T14:09:40.716576,15.69749916,.00011528,53.1562,264.7194,125.2962,234.8164,0,U,62218,999,9114,.55340121E-3,.67111E-3,0
STARLINK-11490 [DTC],2024-231B,2026-06-30T11:13:22.452672,15.69723954,.00007097,53.1569,265.3795,116.2017,243.9074,0,U,62219,999,9112,.98577245E-3,.120657E-2,0
STARLINK-11466 [DTC],2024-231C,2026-06-30T14:30:52.429536,15.69731313,.00011418,53.1566,264.8158,62.7461,297.3673,0,U,62220,999,9114,.87748198E-3,.107195E-2,0
STARLINK-11468 [DTC],2024-231D,2026-06-30T22:23:25.217664,15.69780220,.0001003,53.1569,263.3107,67.2572,292.8552,0,U,62221,999,9119,.16098E-2,.199786E-2,0
STARLINK-11488 [DTC],2024-231E,2026-06-30T14:23:48.792192,15.69731479,.00021972,53.1567,264.7822,27.3977,332.7157,0,U,62222,999,9114,.11491035E-2,.141147E-2,0
STARLINK-11483 [DTC],2024-231F,2026-06-30T22:44:27.970080,15.69810428,.0001285,53.1566,262.6731,51.3882,308.7251,0,U,62223,999,9120,.22835E-2,.287027E-2,0
STARLINK-11492 [DTC],2024-231G,2026-06-30T22:16:21.747936,15.69761343,.0001509,53.1561,263.2898,82.1917,277.9273,0,U,62224,999,9119,.16316E-2,.202399E-2,0
STARLINK-11471 [DTC],2024-231H,2026-06-30T22:51:32.268384,15.69774145,.000242,53.1562,262.7162,77.4667,282.6621,0,U,62225,999,9120,.18484E-2,.230283E-2,0
STARLINK-11475 [DTC],2024-231J,2026-06-30T22:58:35.579136,15.69767145,.0001405,53.1561,262.7364,74.9948,285.1225,0,U,62226,999,9120,.16088E-2,.19954E-2,0
STARLINK-11469 [DTC],2024-231K,2026-06-30T14:02:37.335840,15.69723039,.00027122,53.1565,264.6823,14.5626,345.5470,0,U,62227,999,9114,.10044336E-2,.122994E-2,0
STARLINK-11476 [DTC],2024-231L,2026-06-30T22:37:24.216096,15.69771493,.0001599,53.1574,262.6373,72.3253,287.7940,0,U,62228,999,9121,.13366E-2,.165019E-2,0
STARLINK-11485 [DTC],2024-231M,2026-06-30T13:55:33.508416,15.69717133,.00022584,53.1569,264.6520,20.1754,339.9353,0,U,62229,999,9114,.10612086E-2,.130053E-2,0
STARLINK-11481 [DTC],2024-231N,2026-06-30T22:30:28.951776,15.69819178,.0000913,53.1568,263.3381,56.3579,303.7526,0,U,62230,999,9119,.24177E-2,.304703E-2,0
STARLINK-32650,2024-231P,2026-06-30T15:28:40.477152,15.31716247,.00009709,53.1606,54.8760,80.1351,279.9760,0,U,62231,999,8906,.11644404E-2,.35961E-3,0
STARLINK-32636,2024-231Q,2026-06-30T15:07:03.058464,15.30212736,.0001486,53.1607,54.7837,72.8841,287.2322,0,U,62232,999,8906,.48114522E-3,.13923E-3,0
STARLINK-32643,2024-231R,2026-06-30T23:34:05.460096,15.31747778,.0001091,53.1591,39.9307,111.2055,248.9063,0,U,62233,999,8929,.12612E-2,.39036E-3,0
STARLINK-32652,2024-231S,2026-07-01T00:00:00.998784,15.31681077,.000109,53.1608,53.2693,77.3984,56.1275,0,U,62234,999,588,.11532E-2,.35569E-3,0
