STARLINK-32664          
1 62204U 24229N   26181.90309837  .00157810  00000+0  14673-2 0  9994
2 62204  42.9892 331.4930 0028804 321.7464  38.1358 15.65620041 88107
STARLINK-32660          
1 62205U 24229P   26182.12576791  .00036655  00000+0  13343-2 0  9991
2 62205  42.9974 335.8977 0000661 331.0839  28.9976 15.27594321 88077
STARLINK-32448          
1 62206U 24229Q   26182.19048302  .00031572  00000+0  11504-2 0  9991
2 62206  43.0032 349.3971 0002359 292.2624  67.7978 15.27622653 87921
STARLINK-32430          
1 62207U 24229R   26181.50900331  .00027420  00000+0  10019-2 0  9992
2 62207  43.0000 350.2862 0001011 261.6234  98.4503 15.27590761 87859
STARLINK-32675          
1 62208U 24229S   26181.49310003  .00019245  00000+0  70663-3 0  9990
2 62208  43.0065 353.6271 0004869 284.0358  75.9952 15.27591409 87816
STARLINK-32671          
1 62209U 24229T   26182.18293522  .00031538  00000+0  11497-2 0  9992
2 62209  43.0018 350.1952 0002069 277.0092  83.0524 15.27606868 87912
STARLINK-32670          
1 62210U 24229U   26181.55077877  .00015959  00000+0  58811-3 0  9998
2 62210  43.0000 353.1916 0001226 235.6964 124.3771 15.27584472 87829
STARLINK-32642          
1 62211U 24229V   26181.54434829  .00026412  00000+0  96532-3 0  9990
2 62211  43.0020 353.1452 0001568 264.4849  95.5824 15.27598594 87826
STARLINK-32668          
1 62212U 24229W   26182.16671666  .00022449  00000+0  82210-3 0  9996
2 62212  43.0047 346.6228 0001967 272.5857  87.4769 15.27608915 87957
STARLINK-32669          
1 62213U 24229X   26182.17268116  .00036323  00000+0  13221-2 0  9991
2 62213  43.0028 350.1177 0001306 267.9306  92.1396 15.27601779 87910
STARLINK-32666          
1 62214U 24229Y   26182.17907836  .00027217  00000+0  99382-3 0  9996
2 62214  43.0055 350.1657 0002166 276.5304  83.5301 15.27615446 87919
STARLINK-32662          
1 62215U 24229Z   26182.16494584  .00024537  00000+0  89758-3 0  9995
2 62215  43.0027 350.0598 0001828 265.8606  94.2037 15.27603485 87917
COSMOS 2580             
1 62216U 24230A   26182.19928757 -.00000057  00000+0  12836-4 0  9991
2 62216  67.1488  16.7896 0006092 262.6997  97.3395 13.96673682 80092
STARLINK-11394 [DTC]    
1 62218U 24231A   26181.59005459  .00067111  00000+0  55340-3 0  9991
2 62218  53.1562 264.7194 0001152 125.2962 234.8164 15.69749916 91142
STARLINK-11490 [DTC]    
1 62219U 24231B   26181.46762098  .00120657  00000+0  98577-3 0  9991
2 62219  53.1569 265.3795 0000709 116.2017 243.9074 15.69723954 91125
STARLINK-11466 [DTC]    
1 62220U 24231C   26181.60477349  .00107195  00000+0  87748-3 0  9991
2 62220  53.1566 264.8158 0001141  62.7461 297.3673 15.69731313 91148
STARLINK-11468 [DTC]    
1 62221U 24231D   26181.93293076  .00199786  00000+0  16098-2 0  9997
2 62221  53.1569 263.3107 0001003  67.2572 292.8552 15.69780220 91192
STARLINK-11488 [DTC]    
1 62222U 24231E   26181.59987028  .00141147  00000+0  11491-2 0  9997
2 62222  53.1567 264.7822 0002197  27.3977 332.7157 15.69731479 91143
STARLINK-11483 [DTC]    
1 62223U 24231F   26181.94754595  .00287027  00000+0  22835-2 0  9990
2 62223  53.1566 262.6731 0001285  51.3882 308.7251 15.69810428 91205
STARLINK-11492 [DTC]    
1 62224U 24231G   26181.92802949  .00202399  00000+0  16316-2 0  9992
2 62224  53.1561 263.2898 0001509  82.1917 277.9273 15.69761343 91192
STARLINK-11471 [DTC]    
1 62225U 24231H   26181.95245681  .00230283  00000+0  18484-2 0  9991
2 62225  53.1562 262.7162 0002420  77.4667 282.6621 15.69774145 91200
STARLINK-11475 [DTC]    
1 62226U 24231J   26181.95735624  .00199540  00000+0  16088-2 0  9991
2 62226  53.1561 262.7364 0001405  74.9948 285.1225 15.69767145 91200
STARLINK-11469 [DTC]    
1 62227U 24231K   26181.58515435  .00122994  00000+0  10044-2 0  9992
2 62227  53.1565 264.6823 0002712  14.5626 345.5470 15.69723039 91141
STARLINK-11476 [DTC]    
1 62228U 24231L   26181.94264139  .00165019  00000+0  13366-2 0  9990
2 62228  53.1574 262.6373 0001599  72.3253 287.7940 15.69771493 91214
STARLINK-11485 [DTC]    
1 62229U 24231M   26181.58024894  .00130053  00000+0  10612-2 0  9994
2 62229  53.1569 264.6520 0002258  20.1754 339.9353 15.69717133 91146
STARLINK-11481 [DTC]    
1 62230U 24231N   26181.93783509  .00304703  00000+0  24177-2 0  9996
2 62230  53.1568 263.3381 0000913  56.3579 303.7526 15.69819178 91198
STARLINK-32650          
1 62231U 24231P   26181.64491293  .00035961  00000+0  11644-2 0  9993
2 62231  53.1606  54.8760 0000970  80.1351 279.9760 15.31716247 89061
STARLINK-32636          
1 62232U 24231Q   26181.62989651  .00013923  00000+0  48115-3 0  9990
2 62232  53.1607  54.7837 0001486  72.8841 287.2322 15.30212736 89061
STARLINK-32643          
1 62233U 24231R   26181.98200764  .00039036  00000+0  12612-2 0  9996
2 62233  53.1591  39.9307 0001091 111.2055 248.9063 15.31747778 89299
STARLINK-32652          
1 62234U 24231S   26182.00001156  .00035569  00000+0  11532-2 0  9992
2 62234  53.1608  53.2693 0001090  77.3984  56.1275 15.31681077  5884
